TEVEL2-6                
1 63215U 25052F   26074.27086559  .00021973  00000+0  73423-3 0  9995
2 63215  97.4018 330.6446 0004849  86.6586 273.5210 15.31018714 55728
TEVEL2-1                
1 63217U 25052H   26074.27065009  .00021393  00000+0  72443-3 0  9991
2 63217  97.3993 330.3708 0004963  94.8167 265.3640 15.30592341 55719
TEVEL2-3                
1 63218U 25052J   26074.26809667  .00021410  00000+0  72418-3 0  9999
2 63218  97.3998 330.3805 0004950  95.7764 264.4042 15.30628704 55711
TEVEL2-2                
1 63219U 25052K   26074.20592461  .00021410  00000+0  72501-3 0  9998
2 63219  97.3992 330.3072 0004908  94.9965 265.1836 15.30592748 55705
TEVEL2-9                
1 63237U 25052AD  26074.26598191  .00020150  00000+0  71928-3 0  9992
2 63237  97.4057 329.9270 0008360 109.3936 250.8209 15.28864884 55667
TEVEL2-7                
1 63238U 25052AE  26074.22562566  .00020145  00000+0  72400-3 0  9996
2 63238  97.4059 329.8375 0008545 108.9982 251.2184 15.28640447 55659
TEVEL2-8                
1 63239U 25052AF  26074.23272593  .00019073  00000+0  68613-3 0  9995
2 63239  97.4063 329.8248 0008498 109.9098 250.3058 15.28620496 55652
HADES-ICM               
1 63492U 25052BN  26074.22212562  .00168690  00000+0  21514-2 0  9993
2 63492  97.3927 334.8766 0009113 100.0841 260.1444 15.58682409 56008
